[
 {
  "area_code": 0,
  "area": "남원읍",
  "code": 5013025300,
  "AWS": "제주남원(780)",
  "latitude": 33.2772,
  "longtitude": 126.7044,
  "latMap": 33.2799141,
  "lngMap": 126.7207056
 },
 {
  "area_code": 1,
  "area": "대정읍",
  "code": 5013025000,
  "AWS": "대정(793)",
  "latitude": 33.241,
  "longtitude": 126.2263,
  "latMap": 33.2268151,
  "lngMap": 126.2522254  
 },
 {
  "area_code": 2,
  "area": "성산읍",
  "code": 5013025900,
  "AWS": "성산수산(892)",
  "latitude": 33.4501,
  "longtitude": 126.8513,
  "latMap": 33.3810625,
  "lngMap": 126.8767558
 },
 {
  "area_code": 3,
  "area": "안덕면",
  "code": 5013031000,
  "AWS": "서광(752)",
  "latitude": 33.3046,
  "longtitude": 126.306,
  "latMap": 33.2496801,
  "lngMap": 126.3371482
 },
 {
  "area_code": 4,
  "area": "표선면",
  "code": 5013032000,
  "AWS": "표선(792)",
  "latitude": 33.3536,
  "longtitude": 126.8168,
  "latMap": 33.326494,
  "lngMap": 126.831638
 },
 {
  "area_code": 5,
  "area": "서귀포 시내",
  "code": 5013053000,
  "AWS": "기상(과)(884)",
  "latitude": 33.2593,
  "longtitude": 126.5176,
  "latMap": 33.2541205,
  "lngMap": 126.560076
 },
 {
  "area_code": 6,
  "area": "구좌읍",
  "code": 5011025600,
  "AWS": "구좌(781)",
  "latitude": 33.5199,
  "longtitude": 126.8777,
  "latMap": 33.5014578,
  "lngMap": 126.7972464
 },
 {
  "area_code": 7,
  "area": "애월읍",
  "code": 5011025300,
  "AWS": "유수암(727)",
  "latitude": 33.4099,
  "longtitude": 126.3929,
  "latMap": 33.4619478,
  "lngMap": 126.3295244
 },
 {
  "area_code": 8,
  "area": "조천읍",
  "code": 5011025900,
  "AWS": "대흘(330)",
  "latitude": 33.5008,
  "longtitude": 126.6495,
  "latMap": 33.5344076,
  "lngMap": 126.6342455
 },
 {
  "area_code": 9,
  "area": "한경면",
  "code": 5011031000,
  "AWS": "낙천(990)",
  "latitude": 33.3182,
  "longtitude": 126.2305,
  "latMap": 33.3501173,
  "lngMap": 126.184217
 },
 {
  "area_code": 10,
  "area": "한림읍",
  "code": 5011025000,
  "AWS": "한림(779) ",
  "latitude": 33.3927,
  "longtitude": 126.2581,
  "latMap": 33.4103985,
  "lngMap": 126.2671535
 },
 {
  "area_code": 11,
  "area": "제주 시내",
  "code": 5011054000,
  "AWS": "오등(865)",
  "latitude": 33.4577,
  "longtitude": 126.522,
  "latMap": 33.4996213,
  "lngMap": 126.5311884
 }
 ,
 {
  "area_code": 12,
  "area": "제주전체",
  "code": 0,
  "AWS": "",
  "latitude": 0,
  "longtitude": 0,
  "latMap": 33.355,
  "lngMap": 126.563
 }
]